CZ-2C R/B               
1 54039U 22132E   26057.53998170  .00044122  00000+0  52466-3 0  9991
2 54039  97.2967  60.5283 0020585 126.9278 233.3869 15.60760812188638
GSLV R/B                
1 54149U 22138AN  26057.55556832  .00003141  00000+0  27170-3 0  9996
2 54149  87.3876 170.0880 0021437 185.9080 174.1902 14.96678226182260
XRISM                   
1 57800U 23137A   26057.28161903  .00006181  00000+0  35184-3 0  9995
2 57800  31.0035 357.4413 0008275 284.7335  75.2387 15.11341037136069
ACS3                    
1 59588U 24077B   26057.40706356  .00018185  00000+0  14823-1 0  9997
2 59588  97.2123   1.0560 0052237 108.1252 252.5610 13.89059289 92636
